CCSDS_OMM_VERS = 2.0
CREATION_DATE  = 
ORIGINATOR     = 

OBJECT_NAME    = STARLINK-36697
OBJECT_ID      = 2026-025F
CENTER_NAME    = EARTH
REF_FRAME      = TEME
TIME_SYSTEM    = UTC
MEAN_ELEMENT_THEORY = SGP/SGP4

EPOCH          = 2026-03-06T13:42:53.867520
MEAN_MOTION    = 15.80963251
ECCENTRICITY   = .00048521
INCLINATION    = 97.2842
RA_OF_ASC_NODE = 177.0661
ARG_OF_PERICENTER = 102.3152
MEAN_ANOMALY   = 257.8659

EPHEMERIS_TYPE = 0
CLASSIFICATION_TYPE = U
NORAD_CAT_ID   = 67698
ELEMENT_SET_NO = 999
REV_AT_EPOCH   = 545
BSTAR          = .2643881E-2
MEAN_MOTION_DOT = .542791E-2
MEAN_MOTION_DDOT = 0

CCSDS_OMM_VERS = 2.0
CREATION_DATE  = 
ORIGINATOR     = 

OBJECT_NAME    = STARLINK-36716
OBJECT_ID      = 2026-025G
CENTER_NAME    = EARTH
REF_FRAME      = TEME
TIME_SYSTEM    = UTC
MEAN_ELEMENT_THEORY = SGP/SGP4

EPOCH          = 2026-03-06T14:00:01.000224
MEAN_MOTION    = 15.75164815
ECCENTRICITY   = .00013295
INCLINATION    = 97.2841
RA_OF_ASC_NODE = 177.0561
ARG_OF_PERICENTER = 98.0661
MEAN_ANOMALY   = 280.2519

EPHEMERIS_TYPE = 0
CLASSIFICATION_TYPE = U
NORAD_CAT_ID   = 67699
ELEMENT_SET_NO = 999
REV_AT_EPOCH   = 551
BSTAR          = .11726629E-3
MEAN_MOTION_DOT = .17378E-3
MEAN_MOTION_DDOT = 0

CCSDS_OMM_VERS = 2.0
CREATION_DATE  = 
ORIGINATOR     = 

OBJECT_NAME    = STARLINK-36712
OBJECT_ID      = 2026-025H
CENTER_NAME    = EARTH
REF_FRAME      = TEME
TIME_SYSTEM    = UTC
MEAN_ELEMENT_THEORY = SGP/SGP4

EPOCH          = 2026-03-06T12:52:22.682496
MEAN_MOTION    = 15.75301259
ECCENTRICITY   = .00011263
INCLINATION    = 97.2851
RA_OF_ASC_NODE = 176.9588
ARG_OF_PERICENTER = 359.6609
MEAN_ANOMALY   = 0.4656

EPHEMERIS_TYPE = 0
CLASSIFICATION_TYPE = U
NORAD_CAT_ID   = 67700
ELEMENT_SET_NO = 999
REV_AT_EPOCH   = 544
BSTAR          = .30154163E-2
MEAN_MOTION_DOT = .478076E-2
MEAN_MOTION_DDOT = 0

CCSDS_OMM_VERS = 2.0
CREATION_DATE  = 
ORIGINATOR     = 

OBJECT_NAME    = STARLINK-36713
OBJECT_ID      = 2026-025J
CENTER_NAME    = EARTH
REF_FRAME      = TEME
TIME_SYSTEM    = UTC
MEAN_ELEMENT_THEORY = SGP/SGP4

EPOCH          = 2026-03-06T11:23:25.918656
MEAN_MOTION    = 15.75297661
ECCENTRICITY   = .00004808
INCLINATION    = 97.2851
RA_OF_ASC_NODE = 176.8886
ARG_OF_PERICENTER = 12.8637
MEAN_ANOMALY   = 347.2640

EPHEMERIS_TYPE = 0
CLASSIFICATION_TYPE = U
NORAD_CAT_ID   = 67701
ELEMENT_SET_NO = 999
REV_AT_EPOCH   = 544
BSTAR          = .13746871E-2
MEAN_MOTION_DOT = .211044E-2
MEAN_MOTION_DDOT = 0

CCSDS_OMM_VERS = 2.0
CREATION_DATE  = 
ORIGINATOR     = 

OBJECT_NAME    = STARLINK-36695
OBJECT_ID      = 2026-025K
CENTER_NAME    = EARTH
REF_FRAME      = TEME
TIME_SYSTEM    = UTC
MEAN_ELEMENT_THEORY = SGP/SGP4

EPOCH          = 2026-03-06T11:26:29.002848
MEAN_MOTION    = 15.75312473
ECCENTRICITY   = .00013699
INCLINATION    = 97.2858
RA_OF_ASC_NODE = 176.8853
ARG_OF_PERICENTER = 49.9976
MEAN_ANOMALY   = 310.1409

EPHEMERIS_TYPE = 0
CLASSIFICATION_TYPE = U
NORAD_CAT_ID   = 67702
ELEMENT_SET_NO = 999
REV_AT_EPOCH   = 543
BSTAR          = .20468989E-2
MEAN_MOTION_DOT = .31853E-2
MEAN_MOTION_DDOT = 0

CCSDS_OMM_VERS = 2.0
CREATION_DATE  = 
ORIGINATOR     = 

OBJECT_NAME    = STARLINK-36630
OBJECT_ID      = 2026-025L
CENTER_NAME    = EARTH
REF_FRAME      = TEME
TIME_SYSTEM    = UTC
MEAN_ELEMENT_THEORY = SGP/SGP4

EPOCH          = 2026-03-06T15:04:19.075584
MEAN_MOTION    = 15.77217633
ECCENTRICITY   = .00011298
INCLINATION    = 97.2847
RA_OF_ASC_NODE = 177.1413
ARG_OF_PERICENTER = 52.7921
MEAN_ANOMALY   = 307.3448

EPHEMERIS_TYPE = 0
CLASSIFICATION_TYPE = U
NORAD_CAT_ID   = 67703
ELEMENT_SET_NO = 999
REV_AT_EPOCH   = 546
BSTAR          = -.65066065E-2
MEAN_MOTION_DOT = -.950061E-2
MEAN_MOTION_DDOT = 0

CCSDS_OMM_VERS = 2.0
CREATION_DATE  = 
ORIGINATOR     = 

OBJECT_NAME    = STARLINK-36338
OBJECT_ID      = 2026-025M
CENTER_NAME    = EARTH
REF_FRAME      = TEME
TIME_SYSTEM    = UTC
MEAN_ELEMENT_THEORY = SGP/SGP4

EPOCH          = 2026-03-06T13:58:26.734368
MEAN_MOTION    = 15.75272259
ECCENTRICITY   = .00013523
INCLINATION    = 97.2839
RA_OF_ASC_NODE = 177.0469
ARG_OF_PERICENTER = 86.1605
MEAN_ANOMALY   = 273.9815

EPHEMERIS_TYPE = 0
CLASSIFICATION_TYPE = U
NORAD_CAT_ID   = 67704
ELEMENT_SET_NO = 999
REV_AT_EPOCH   = 545
BSTAR          = .15032386E-2
MEAN_MOTION_DOT = .231081E-2
MEAN_MOTION_DDOT = 0

CCSDS_OMM_VERS = 2.0
CREATION_DATE  = 
ORIGINATOR     = 

OBJECT_NAME    = STARLINK-36316
OBJECT_ID      = 2026-025N
CENTER_NAME    = EARTH
REF_FRAME      = TEME
TIME_SYSTEM    = UTC
MEAN_ELEMENT_THEORY = SGP/SGP4

EPOCH          = 2026-03-06T12:41:11.245632
MEAN_MOTION    = 15.75309580
ECCENTRICITY   = .00034378
INCLINATION    = 97.2854
RA_OF_ASC_NODE = 176.9686
ARG_OF_PERICENTER = 122.9225
MEAN_ANOMALY   = 237.2371

EPHEMERIS_TYPE = 0
CLASSIFICATION_TYPE = U
NORAD_CAT_ID   = 67705
ELEMENT_SET_NO = 999
REV_AT_EPOCH   = 544
BSTAR          = .15614603E-2
MEAN_MOTION_DOT = .240733E-2
MEAN_MOTION_DDOT = 0

CCSDS_OMM_VERS = 2.0
CREATION_DATE  = 
ORIGINATOR     = 

OBJECT_NAME    = STARLINK-36707
OBJECT_ID      = 2026-025P
CENTER_NAME    = EARTH
REF_FRAME      = TEME
TIME_SYSTEM    = UTC
MEAN_ELEMENT_THEORY = SGP/SGP4

EPOCH          = 2026-03-06T06:06:49.313088
MEAN_MOTION    = 15.75325851
ECCENTRICITY   = .00007726
INCLINATION    = 97.2848
RA_OF_ASC_NODE = 176.7289
ARG_OF_PERICENTER = 132.8286
MEAN_ANOMALY   = 227.3045

EPHEMERIS_TYPE = 0
CLASSIFICATION_TYPE = U
NORAD_CAT_ID   = 67706
ELEMENT_SET_NO = 999
REV_AT_EPOCH   = 540
BSTAR          = .25623186E-2
MEAN_MOTION_DOT = .403044E-2
MEAN_MOTION_DDOT = 0

CCSDS_OMM_VERS = 2.0
CREATION_DATE  = 
ORIGINATOR     = 

OBJECT_NAME    = STARLINK-36645
OBJECT_ID      = 2026-025Q
CENTER_NAME    = EARTH
REF_FRAME      = TEME
TIME_SYSTEM    = UTC
MEAN_ELEMENT_THEORY = SGP/SGP4

EPOCH          = 2026-03-06T06:40:52.095936
MEAN_MOTION    = 15.75209940
ECCENTRICITY   = .00007869
INCLINATION    = 97.2851
RA_OF_ASC_NODE = 176.6968
ARG_OF_PERICENTER = 39.3582
MEAN_ANOMALY   = 320.7740

EPHEMERIS_TYPE = 0
CLASSIFICATION_TYPE = U
NORAD_CAT_ID   = 67707
ELEMENT_SET_NO = 999
REV_AT_EPOCH   = 540
BSTAR          = .10372885E-2
MEAN_MOTION_DOT = .157611E-2
MEAN_MOTION_DDOT = 0

CCSDS_OMM_VERS = 2.0
CREATION_DATE  = 
ORIGINATOR     = 

OBJECT_NAME    = STARLINK-36287
OBJECT_ID      = 2026-025R
CENTER_NAME    = EARTH
REF_FRAME      = TEME
TIME_SYSTEM    = UTC
MEAN_ELEMENT_THEORY = SGP/SGP4

EPOCH          = 2026-03-06T14:00:01.000224
MEAN_MOTION    = 15.75170535
ECCENTRICITY   = .00014996
INCLINATION    = 97.2844
RA_OF_ASC_NODE = 177.1034
ARG_OF_PERICENTER = 84.1132
MEAN_ANOMALY   = 48.1973

EPHEMERIS_TYPE = 0
CLASSIFICATION_TYPE = U
NORAD_CAT_ID   = 67708
ELEMENT_SET_NO = 999
REV_AT_EPOCH   = 551
BSTAR          = .89639324E-4
MEAN_MOTION_DOT = .1325E-3
MEAN_MOTION_DDOT = 0

CCSDS_OMM_VERS = 2.0
CREATION_DATE  = 
ORIGINATOR     = 

OBJECT_NAME    = STARLINK-36698
OBJECT_ID      = 2026-025S
CENTER_NAME    = EARTH
REF_FRAME      = TEME
TIME_SYSTEM    = UTC
MEAN_ELEMENT_THEORY = SGP/SGP4

EPOCH          = 2026-03-06T14:00:01.000224
MEAN_MOTION    = 15.75191528
ECCENTRICITY   = .00014258
INCLINATION    = 97.2854
RA_OF_ASC_NODE = 177.1216
ARG_OF_PERICENTER = 73.1181
MEAN_ANOMALY   = 103.1757

EPHEMERIS_TYPE = 0
CLASSIFICATION_TYPE = U
NORAD_CAT_ID   = 67709
ELEMENT_SET_NO = 999
REV_AT_EPOCH   = 536
BSTAR          = -.15193506E-3
MEAN_MOTION_DOT = -.22733E-3
MEAN_MOTION_DDOT = 0

